NORAD_CAT_ID,OBJECT_NAME,OBJECT_TYPE,EPOCH,MEAN_MOTION,ECCENTRICITY,INCLINATION,RA_OF_ASC_NODE,ARG_OF_PERICENTER,MEAN_ANOMALY,BSTAR,MEAN_MOTION_DOT,MEAN_MOTION_DDOT,TLE_LINE0,TLE_LINE1,TLE_LINE2,SEMIMAJOR_AXIS,PERIOD,APOGEE,PERIGEE,DECAYED
53773.0,STARLINK-4718,PAYLOAD,2023-09-10 11:16:29,15.0884705,0.0001298,53.2171,54.6645,93.4613,266.6528,0.00051779,7.964e-05,0.0,0 STARLINK-4718,1 53773U 22111A   23253.46978905  .00007964  00000-0  51779-3 0  9993,2 53773  53.2171  54.6645 0001298  93.4613 266.6528 15.08847050 55184,6917.859,95.437,540.622,538.826,0.0
53773.0,STARLINK-4718,PAYLOAD,2023-09-11 03:10:21,15.08846377,0.0001183,53.2172,51.691,84.707,275.4057,0.00054769,8.441e-05,0.0,0 STARLINK-4718,1 53773U 22111A   23254.13218947  .00008441  00000-0  54769-3 0  9994,2 53773  53.2172  51.6910 0001183  84.7070 275.4057 15.08846377 55287,6917.861,95.437,540.544,538.908,0.0
53773.0,STARLINK-4718,PAYLOAD,2023-09-11 14:18:03,15.08840037,0.0001504,53.217,49.61,94.1081,266.0083,0.00031669,4.756e-05,0.0,0 STARLINK-4718,1 53773U 22111A   23254.59587213  .00004756  00000-0  31669-3 0  9998,2 53773  53.2170  49.6100 0001504  94.1081 266.0083 15.08840037 56459,6917.88,95.438,540.786,538.705,0.0
53773.0,STARLINK-4718,PAYLOAD,2023-09-11 17:28:49,15.08846239,0.0001274,53.217,49.0156,87.7378,272.376,0.00029474,4.407e-05,0.0,0 STARLINK-4718,1 53773U 22111A   23254.72835044  .00004407  00000-0  29474-3 0  9995,2 53773  53.2170  49.0156 0001274  87.7378 272.3760 15.08846239 55377,6917.861,95.437,540.608,538.845,0.0
53773.0,STARLINK-4718,PAYLOAD,2023-09-12 03:01:08,15.0883495,0.0001694,53.2174,47.2305,84.9757,275.1429,0.00021274,3.099e-05,0.0,0 STARLINK-4718,1 53773U 22111A   23255.12579519  .00003099  00000-0  21274-3 0  9998,2 53773  53.2174  47.2305 0001694  84.9757 275.1429 15.08834950 55430,6917.896,95.438,540.933,538.589,0.0
53773.0,STARLINK-4718,PAYLOAD,2023-09-12 14:08:50,15.08840501,0.0001287,53.217,45.1484,82.9818,277.132,0.00015601,2.196e-05,0.0,0 STARLINK-4718,1 53773U 22111A   23255.58947304  .00002196  00000-0  15601-3 0  9993,2 53773  53.2170  45.1484 0001287  82.9818 277.1320 15.08840501 56606,6917.879,95.438,540.634,538.854,0.0
53773.0,STARLINK-4718,PAYLOAD,2023-09-12 18:54:59,15.08853066,0.0001358,53.2181,44.2591,91.3991,268.7157,0.00039395,5.99e-05,0.0,0 STARLINK-4718,1 53773U 22111A   23255.78818959  .00005990  00000-0  39395-3 0  9999,2 53773  53.2181  44.2591 0001358  91.3991 268.7157 15.08853066 56639,6917.84,95.437,540.645,538.766,0.0
53773.0,STARLINK-4718,PAYLOAD,2023-09-13 09:13:27,15.08848064,0.0001529,53.2181,41.5817,90.4421,269.6746,0.00026371,3.912e-05,0.0,0 STARLINK-4718,1 53773U 22111A   23256.38435050  .00003912  00000-0  26371-3 0  9995,2 53773  53.2181  41.5817 0001529  90.4421 269.6746 15.08848064 55622,6917.856,95.437,540.778,538.663,0.0
53773.0,STARLINK-4718,PAYLOAD,2023-09-13 17:10:23,15.08855817,0.0001199,53.218,40.0947,84.5773,275.5356,0.00040136,6.108e-05,0.0,0 STARLINK-4718,1 53773U 22111A   23256.71554445  .00006108  00000-0  40136-3 0  9997,2 53773  53.2180  40.0947 0001199  84.5773 275.5356 15.08855817 56770,6917.832,95.437,540.526,538.868,0.0
53773.0,STARLINK-4718,PAYLOAD,2023-09-14 09:04:15,15.08838675,0.0001381,53.2175,37.121,76.6342,283.4804,3.9012e-05,3.33e-06,0.0,0 STARLINK-4718,1 53773U 22111A   23257.37795241  .00000333  00000-0  39012-4 0  9997,2 53773  53.2175  37.1210 0001381  76.6342 283.4804 15.08838675 55779,6917.884,95.438,540.705,538.794,0.0
53773.0,STARLINK-4718,PAYLOAD,2023-09-14 17:01:11,15.08827784,9.56e-05,53.2165,35.6323,83.9619,276.1482,-6.9299e-05,-1.39e-05,0.0,0 STARLINK-4718,1 53773U 22111A   23257.70915649 -.00001390  00000-0 -69299-4 0  9996,2 53773  53.2165  35.6323 0000956  83.9619 276.1482 15.08827784 55827,6917.918,95.438,540.444,539.121,0.0
53773.0,STARLINK-4718,PAYLOAD,2023-09-15 13:41:12,15.08842939,0.0001252,53.2174,31.7692,65.4493,294.663,0.00039356,5.982e-05,0.0,0 STARLINK-4718,1 53773U 22111A   23258.57028014  .00005982  00000-0  39356-3 0  9992,2 53773  53.2174  31.7692 0001252  65.4493 294.6630 15.08842939 57054,6917.871,95.437,540.603,538.87,0.0
53773.0,STARLINK-4718,PAYLOAD,2023-09-15 15:16:35,15.08848081,0.0001284,53.2176,31.4708,68.5854,291.5275,0.00053169,8.186e-05,0.0,0 STARLINK-4718,1 53773U 22111A   23258.63651850  .00008186  00000-0  53169-3 0  9996,2 53773  53.2176  31.4708 0001284  68.5854 291.5275 15.08848081 55964,6917.856,95.437,540.609,538.832,0.0
53773.0,STARLINK-4718,PAYLOAD,2023-09-16 13:31:59,15.08843807,0.0001241,53.2172,27.3062,88.6207,271.4927,0.00025527,3.777e-05,0.0,0 STARLINK-4718,1 53773U 22111A   23259.56387964  .00003777  00000-0  25527-3 0  9999,2 53773  53.2172  27.3062 0001241  88.6207 271.4927 15.08843807 57206,6917.869,95.437,540.592,538.875,0.0
53773.0,STARLINK-4718,PAYLOAD,2023-09-16 15:07:22,15.08842757,0.0001227,53.2174,27.0089,86.4725,273.6408,0.00025328,3.746e-05,0.0,0 STARLINK-4718,1 53773U 22111A   23259.63012021  .00003746  00000-0  25328-3 0  9991,2 53773  53.2174  27.0089 0001227  86.4725 273.6408 15.08842757 56119,6917.872,95.437,540.586,538.888,0.0
53773.0,STARLINK-4718,PAYLOAD,2023-09-17 13:22:46,15.08846752,0.0001126,53.2179,22.8448,91.0014,269.1107,0.00021457,3.129e-05,0.0,0 STARLINK-4718,1 53773U 22111A   23260.55747782  .00003129  00000-0  21457-3 0  9997,2 53773  53.2179  22.8448 0001126  91.0014 269.1107 15.08846752 57359,6917.86,95.437,540.504,538.946,0.0
53773.0,STARLINK-4718,PAYLOAD,2023-09-17 14:58:08,15.08851911,0.0001259,53.218,22.5471,98.2655,261.848,0.00011628,1.564e-05,0.0,0 STARLINK-4718,1 53773U 22111A   23260.62371454  .00001564  00000-0  11628-3 0  9994,2 53773  53.2180  22.5471 0001259  98.2655 261.8480 15.08851911 56266,6917.844,95.437,540.58,538.838,0.0
53773.0,STARLINK-4718,PAYLOAD,2023-09-18 13:13:32,15.08843347,0.0001599,53.2188,18.3822,107.5415,252.5752,9.3027e-05,1.193e-05,0.0,0 STARLINK-4718,1 53773U 22111A   23261.55107555  .00001193  00000-0  93027-4 0  9998,2 53773  53.2188  18.3822 0001599 107.5415 252.5752 15.08843347 57503,6917.87,95.437,540.841,538.629,0.0
53773.0,STARLINK-4718,PAYLOAD,2023-09-18 14:48:56,15.08845881,0.0001424,53.2187,18.0861,88.791,271.3245,0.00011055,1.472e-05,0.0,0 STARLINK-4718,1 53773U 22111A   23261.61731542  .00001472  00000-0  11055-3 0  9994,2 53773  53.2187  18.0861 0001424  88.7910 271.3245 15.08845881 56419,6917.862,95.437,540.713,538.742,0.0
53773.0,STARLINK-4718,PAYLOAD,2023-09-18 19:35:04,15.08854723,0.0001602,53.2188,17.1922,110.378,249.7384,0.00021606,3.154e-05,0.0,0 STARLINK-4718,1 53773U 22111A   23261.81602864  .00003154  00000-0  21606-3 0  9992,2 53773  53.2188  17.1922 0001602 110.3780 249.7384 15.08854723 57546,6917.835,95.437,540.809,538.592,0.0
53773.0,STARLINK-4718,PAYLOAD,2023-09-19 00:21:15,15.08832882,0.0002129,53.2189,16.3015,82.982,277.1414,-5.2716e-05,-1.127e-05,0.0,0 STARLINK-4718,1 53773U 22111A   23262.01476265 -.00001127  00000-0 -52716-4 0  9996,2 53773  53.2189  16.3015 0002129  82.9820 277.1414 15.08832882 56477,6917.902,95.438,541.24,538.294,0.0
53773.0,STARLINK-4718,PAYLOAD,2023-09-19 17:50:28,15.08868111,0.0001265,53.2189,13.0316,95.4881,264.6256,0.00057225,8.838e-05,0.0,0 STARLINK-4718,1 53773U 22111A   23262.74338165  .00008838  00000-0  57225-3 0  9995,2 53773  53.2189  13.0316 0001265  95.4881 264.6256 15.08868111 56582,6917.794,95.436,540.535,538.784,0.0
53773.0,STARLINK-4718,PAYLOAD,2023-09-20 12:55:07,15.08815276,0.0001341,53.2187,9.4644,112.833,247.2804,-0.00040004,-6.644e-05,0.0,0 STARLINK-4718,1 53773U 22111A   23263.53828399 -.00006644  00000-0 -40004-3 0  9998,2 53773  53.2187   9.4644 0001341 112.8330 247.2804 15.08815276 56705,6917.956,95.439,540.749,538.893,0.0
53773.0,STARLINK-4718,PAYLOAD,2023-09-20 14:30:31,15.08812963,0.000112,53.2174,9.1697,65.3359,294.775,-0.00031702,-5.326e-05,0.0,0 STARLINK-4718,1 53773U 22111A   23263.60452791 -.00005326  00000-0 -31702-3 0  9996,2 53773  53.2174   9.1697 0001120  65.3359 294.7750 15.08812963 57814,6917.963,95.439,540.603,539.053,0.0
53773.0,STARLINK-4718,PAYLOAD,2023-09-20 17:41:17,15.08816351,0.0001103,53.2177,8.5744,73.2837,286.8276,-0.00010092,-1.892e-05,0.0,0 STARLINK-4718,1 53773U 22111A   23263.73700936 -.00001892  00000-0 -10092-3 0  9990,2 53773  53.2177   8.5744 0001103  73.2837 286.8276 15.08816351 57835,6917.953,95.439,540.581,539.055,0.0
53773.0,STARLINK-4718,PAYLOAD,2023-09-21 12:45:55,15.08839964,0.0001247,53.217,5.0064,63.5203,296.5917,0.00089193,0.00013936,0.0,0 STARLINK-4718,1 53773U 22111A   23264.53189527  .00013936  00000-0  89193-3 0  9994,2 53773  53.2170   5.0064 0001247  63.5203 296.5917 15.08839964 57951,6917.88,95.438,540.608,538.883,0.0
53773.0,STARLINK-4718,PAYLOAD,2023-09-21 15:56:41,15.08857099,0.0001336,53.2172,4.4122,58.7615,301.3508,0.0015157,0.00023928,0.0,0 STARLINK-4718,1 53773U 22111A   23264.66437431  .00023928  00000-0  15157-2 0  9998,2 53773  53.2172   4.4122 0001336  58.7615 301.3508 15.08857099 56873,6917.828,95.436,540.617,538.769,0.0
53773.0,STARLINK-4718,PAYLOAD,2023-09-21 19:07:27,15.08870056,0.000141,53.217,3.818,55.8206,304.2919,0.0017975,0.00028459,0.0,0 STARLINK-4718,1 53773U 22111A   23264.79685155  .00028459  00000-0  17975-2 0  9994,2 53773  53.2170   3.8180 0001410  55.8206 304.2919 15.08870056 57995,6917.789,95.436,540.629,538.678,0.0
53773.0,STARLINK-4718,PAYLOAD,2023-09-21 23:53:37,15.08852302,0.0001043,53.2176,2.9251,73.8893,286.2214,0.0001332,1.833e-05,0.0,0 STARLINK-4718,1 53773U 22111A   23264.99557078  .00001833  00000-0  13320-3 0  9996,2 53773  53.2176   2.9251 0001043  73.8893 286.2214 15.08852302 56927,6917.843,95.437,540.429,538.986,0.0
53773.0,STARLINK-4718,PAYLOAD,2023-09-22 12:36:42,15.08870154,0.000142,53.217,0.5466,65.5327,294.5814,0.0017726,0.00028059,0.0,0 STARLINK-4718,1 53773U 22111A   23265.52548746  .00028059  00000-0  17726-2 0  9990,2 53773  53.2170   0.5466 0001420  65.5327 294.5814 15.08870154 58107,6917.788,95.436,540.636,538.671,0.0
